
# Worst residual: 22.14 km
# MJD 55692.000000 (2011 May 11  0:00)
2010-050B = RV223A9 = Chang'e 2 hardware
1 99999U 10050B   11131.49923398  .00000000  00000-0  00000-0 0    08
2 99999 076.2546 332.9633 1727304 284.8203 063.6844 00.03575029    09

# Worst residual: 30.06 km
# MJD 55693.000000 (2011 May 12  0:00)
2010-050B = RV223A9 = Chang'e 2 hardware
1 99999U 10050B   11132.49923398  .00000000  00000-0  00000-0 0    09
2 99999 076.2981 332.9125 1681993 280.9128 080.8310 00.03637359    08

# Worst residual: 36.87 km
# MJD 55694.000000 (2011 May 13  0:00)
2010-050B = RV223A9 = Chang'e 2 hardware
1 99999U 10050B   11133.49923398  .00000000  00000-0  00000-0 0    00
2 99999 076.3314 332.8801 1700581 275.7752 099.1358 00.03714396    01

# Worst residual: 43.23 km
# MJD 55695.000000 (2011 May 14  0:00)
2010-050B = RV223A9 = Chang'e 2 hardware
1 99999U 10050B   11134.49923398  .00000000  00000-0  00000-0 0    01
2 99999 076.3206 332.8213 1782775 272.1671 115.7725 00.03780572    06

# Worst residual: 50.16 km
# MJD 55696.000000 (2011 May 15  0:00)
2010-050B = RV223A9 = Chang'e 2 hardware
1 99999U 10050B   11135.49923398  .00000000  00000-0  00000-0 0    02
2 99999 076.2575 332.6880 1889142 271.0240 129.7782 00.03826372    05

# Worst residual: 55.55 km
# MJD 55697.000000 (2011 May 16  0:00)
2010-050B = RV223A9 = Chang'e 2 hardware
1 99999U 10050B   11136.49923398  .00000000  00000-0  00000-0 0    03
2 99999 076.1664 332.4566 1979973 271.9885 141.5303 00.03848991    00

# Worst residual: 57.63 km
# MJD 55698.000000 (2011 May 17  0:00)
2010-050B = RV223A9 = Chang'e 2 hardware
1 99999U 10050B   11137.49923398  .00000000  00000-0  00000-0 0    04
2 99999 076.0881 332.1495 2029685 274.2779 151.8627 00.03849141    04

# Worst residual: 55.61 km
# MJD 55699.000000 (2011 May 18  0:00)
2010-050B = RV223A9 = Chang'e 2 hardware
1 99999U 10050B   11138.49923398  .00000000  00000-0  00000-0 0    05
2 99999 076.0517 331.8286 2028028 277.0946 161.6407 00.03830058    03

# Worst residual: 49.56 km
# MJD 55700.000000 (2011 May 19  0:00)
2010-050B = RV223A9 = Chang'e 2 hardware
1 99999U 10050B   11139.49923398  .00000000  00000-0  00000-0 0    06
2 99999 076.0561 331.5639 1977643 279.7275 171.6482 00.03796666    00

# Worst residual: 41.01 km
# MJD 55701.000000 (2011 May 20  0:00)
2010-050B = RV223A9 = Chang'e 2 hardware
1 99999U 10050B   11140.49923398  .00000000  00000-0  00000-0 0    08
2 99999 076.0746 331.3971 1890512 281.5731 182.5528 00.03754280    07

# Worst residual: 32.29 km
# MJD 55702.000000 (2011 May 21  0:00)
2010-050B = RV223A9 = Chang'e 2 hardware
1 99999U 10050B   11141.49923398  .00000000  00000-0  00000-0 0    09
2 99999 076.0754 331.3264 1784472 282.1687 194.8550 00.03707497    04

# Worst residual: 25.11 km
# MJD 55703.000000 (2011 May 22  0:00)
2010-050B = RV223A9 = Chang'e 2 hardware
1 99999U 10050B   11142.49923398  .00000000  00000-0  00000-0 0    00
2 99999 076.0411 331.3164 1680805 281.2893 208.7789 00.03660238    07

# Worst residual: 20.16 km
# MJD 55704.000000 (2011 May 23  0:00)
2010-050B = RV223A9 = Chang'e 2 hardware
1 99999U 10050B   11143.49923398  .00000000  00000-0  00000-0 0    01
2 99999 075.9758 331.3216 1601663 279.1537 224.0703 00.03617054    08

# Worst residual: 17.18 km
# MJD 55705.000000 (2011 May 24  0:00)
2010-050B = RV223A9 = Chang'e 2 hardware
1 99999U 10050B   11144.49923398  .00000000  00000-0  00000-0 0    02
2 99999 075.8995 331.3052 1563372 276.6292 239.8092 00.03584293    05

# Worst residual: 15.88 km
# MJD 55706.000000 (2011 May 25  0:00)
2010-050B = RV223A9 = Chang'e 2 hardware
1 99999U 10050B   11145.49923398  .00000000  00000-0  00000-0 0    03
2 99999 075.8382 331.2501 1566079 274.9808 254.6823 00.03568939    00

# Worst residual: 15.85 km
# MJD 55707.000000 (2011 May 26  0:00)
2010-050B = RV223A9 = Chang'e 2 hardware
1 99999U 10050B   11146.49923398  .00000000  00000-0  00000-0 0    04
2 99999 075.8130 331.1609 1591391 275.0293 267.8370 00.03574865    02

# Worst residual: 16.64 km
# MJD 55708.000000 (2011 May 27  0:00)
2010-050B = RV223A9 = Chang'e 2 hardware
1 99999U 10050B   11147.49923398  .00000000  00000-0  00000-0 0    05
2 99999 075.8297 331.0582 1614232 276.6223 279.4106 00.03599946    08

# Worst residual: 18.26 km
# MJD 55709.000000 (2011 May 28  0:00)
2010-050B = RV223A9 = Chang'e 2 hardware
1 99999U 10050B   11148.49923398  .00000000  00000-0  00000-0 0    06
2 99999 075.8757 330.9657 1616049 278.9499 290.2080 00.03637268    00

# Worst residual: 20.90 km
# MJD 55710.000000 (2011 May 29  0:00)
2010-050B = RV223A9 = Chang'e 2 hardware
1 99999U 10050B   11149.49923398  .00000000  00000-0  00000-0 0    07
2 99999 075.9284 330.8964 1589941 281.0569 301.1832 00.03678202    09

# Worst residual: 24.47 km
# MJD 55711.000000 (2011 May 30  0:00)
2010-050B = RV223A9 = Chang'e 2 hardware
1 99999U 10050B   11150.49923398  .00000000  00000-0  00000-0 0    09
2 99999 075.9697 330.8497 1541869 282.0692 313.2102 00.03713684    01

# Worst residual: 28.50 km
# MJD 55712.000000 (2011 May 31  0:00)
2010-050B = RV223A9 = Chang'e 2 hardware
1 99999U 10050B   11151.49923398  .00000000  00000-0  00000-0 0    00
2 99999 075.9952 330.8191 1491889 281.3579 326.9137 00.03734141    08

# Worst residual: 32.48 km
# MJD 55713.000000 (2011 Jun  1  0:00)
2010-050B = RV223A9 = Chang'e 2 hardware
1 99999U 10050B   11152.49923398  .00000000  00000-0  00000-0 0    01
2 99999 076.0099 330.8032 1470280 279.0121 342.1943 00.03730855    08

# Worst residual: 35.28 km
# MJD 55714.000000 (2011 Jun  2  0:00)
2010-050B = RV223A9 = Chang'e 2 hardware
1 99999U 10050B   11153.49923398  .00000000  00000-0  00000-0 0    02
2 99999 076.0138 330.8072 1500902 276.2929 357.7817 00.03698821    04

# Worst residual: 36.28 km
# MJD 55715.000000 (2011 Jun  3  0:00)
2010-050B = RV223A9 = Chang'e 2 hardware
1 99999U 10050B   11154.49923398  .00000000  00000-0  00000-0 0    03
2 99999 075.9942 330.8307 1582820 275.0550 011.8237 00.03637422    06

# Worst residual: 35.43 km
# MJD 55716.000000 (2011 Jun  4  0:00)
2010-050B = RV223A9 = Chang'e 2 hardware
1 99999U 10050B   11155.49923398  .00000000  00000-0  00000-0 0    04
2 99999 075.9361 330.8550 1688915 276.4472 023.1847 00.03551716    05

# Worst residual: 33.34 km
# MJD 55717.000000 (2011 Jun  5  0:00)
2010-050B = RV223A9 = Chang'e 2 hardware
1 99999U 10050B   11156.49923398  .00000000  00000-0  00000-0 0    05
2 99999 075.8452 330.8461 1777434 280.1221 032.2367 00.03459405    05
